[{"OBJECT_NAME":"STARLINK-5174","OBJECT_ID":"2022-136S","EPOCH":"2026-03-09T22:21:06.260544","MEAN_MOTION":15.08838744,"ECCENTRICITY":0.00015385,"INCLINATION":53.2217,"RA_OF_ASC_NODE":342.8142,"ARG_OF_PERICENTER":100.5799,"MEAN_ANOMALY":259.5367,"EPHEMERIS_TYPE":0,"CLASSIFICATION_TYPE":"U","NORAD_CAT_ID":54067,"ELEMENT_SET_NO":999,"REV_AT_EPOCH":18688,"BSTAR":-8.5622133e-5,"MEAN_MOTION_DOT":-1.65e-5,"MEAN_MOTION_DDOT":0},{"OBJECT_NAME":"THOR AGENA B R\/B","OBJECT_ID":"1965-098C","EPOCH":"2026-03-09T15:40:12.733824","MEAN_MOTION":12.27969783,"ECCENTRICITY":0.13310603,"INCLINATION":79.835,"RA_OF_ASC_NODE":125.8522,"ARG_OF_PERICENTER":232.6333,"MEAN_ANOMALY":114.6139,"EPHEMERIS_TYPE":0,"CLASSIFICATION_TYPE":"U","NORAD_CAT_ID":1807,"ELEMENT_SET_NO":999,"REV_AT_EPOCH":66108,"BSTAR":0.00040632197,"MEAN_MOTION_DOT":1.226e-5,"MEAN_MOTION_DDOT":0}]
